{
 "type": "FeatureCollection",
 "name": "Irregular camp, four doors",
 "features": [
  {
   "type": "Feature",
   "properties": {
    "layer": "CAMP_BOUNDARY",
    "name": "Irregular camp, four doors"
   },
   "geometry": {
    "type": "Polygon",
    "coordinates": [
     [
      [
       39.89286869,
       21.41282063
      ],
      [
       39.89319671,
       21.41281888
      ],
      [
       39.89325487,
       21.41286374
      ],
      [
       39.89325569,
       21.41299925
      ],
      [
       39.89319813,
       21.41305376
      ],
      [
       39.89300518,
       21.41305479
      ],
      [
       39.89300496,
       21.41301866
      ],
      [
       39.89291813,
       21.41301912
      ],
      [
       39.89286962,
       21.41297421
      ],
      [
       39.89286869,
       21.41282063
      ]
     ]
    ]
   }
  },
  {
   "type": "Feature",
   "properties": {
    "layer": "DOORS",
    "name": "D1-south"
   },
   "geometry": {
    "type": "LineString",
    "coordinates": [
     [
      39.89292657,
      21.41282032
     ],
     [
      39.89294587,
      21.41282021
     ]
    ]
   }
  },
  {
   "type": "Feature",
   "properties": {
    "layer": "DOORS",
    "name": "D2-east"
   },
   "geometry": {
    "type": "LineString",
    "coordinates": [
     [
      39.8932552,
      21.41291794
     ],
     [
      39.89325531,
      21.41293601
     ]
    ]
   }
  },
  {
   "type": "Feature",
   "properties": {
    "layer": "DOORS",
    "name": "D3-north"
   },
   "geometry": {
    "type": "LineString",
    "coordinates": [
     [
      39.89308236,
      21.41305438
     ],
     [
      39.89310166,
      21.41305428
     ]
    ]
   }
  },
  {
   "type": "Feature",
   "properties": {
    "layer": "DOORS",
    "name": "D4-west"
   },
   "geometry": {
    "type": "LineString",
    "coordinates": [
     [
      39.89286913,
      21.4128929
     ],
     [
      39.89286921,
      21.41290645
     ]
    ]
   }
  },
  {
   "type": "Feature",
   "properties": {
    "layer": "OBSTACLES",
    "name": "latrines",
    "kind": "sanitation"
   },
   "geometry": {
    "type": "Polygon",
    "coordinates": [
     [
      [
       39.89287902,
       21.4129335
      ],
      [
       39.89291761,
       21.4129333
      ],
      [
       39.89291778,
       21.4129604
      ],
      [
       39.89287919,
       21.4129606
      ],
      [
       39.89287902,
       21.4129335
      ]
     ]
    ]
   }
  },
  {
   "type": "Feature",
   "properties": {
    "layer": "OBSTACLES",
    "name": "generator",
    "kind": "power"
   },
   "geometry": {
    "type": "Polygon",
    "coordinates": [
     [
      [
       39.89315845,
       21.41287329
      ],
      [
       39.89319704,
       21.41287308
      ],
      [
       39.8931972,
       21.41290018
      ],
      [
       39.89315861,
       21.41290039
      ],
      [
       39.89315845,
       21.41287329
      ]
     ]
    ]
   }
  },
  {
   "type": "Feature",
   "properties": {
    "layer": "OBSTACLES",
    "name": "water-tank",
    "kind": "water"
   },
   "geometry": {
    "type": "Polygon",
    "coordinates": [
     [
      [
       39.89311542,
       21.41293676
      ],
      [
       39.89311473,
       21.41294095
      ],
      [
       39.8931127,
       21.41294474
      ],
      [
       39.89310952,
       21.41294775
      ],
      [
       39.89310549,
       21.4129497
      ],
      [
       39.89310103,
       21.41295039
      ],
      [
       39.89309655,
       21.41294975
      ],
      [
       39.8930925,
       21.41294784
      ],
      [
       39.89308929,
       21.41294486
      ],
      [
       39.89308721,
       21.4129411
      ],
      [
       39.89308647,
       21.41293691
      ],
      [
       39.89308716,
       21.41293272
      ],
      [
       39.89308919,
       21.41292893
      ],
      [
       39.89309237,
       21.41292592
      ],
      [
       39.89309639,
       21.41292397
      ],
      [
       39.89310086,
       21.41292328
      ],
      [
       39.89310534,
       21.41292392
      ],
      [
       39.89310938,
       21.41292583
      ],
      [
       39.8931126,
       21.41292881
      ],
      [
       39.89311468,
       21.41293257
      ],
      [
       39.89311542,
       21.41293676
      ]
     ]
    ]
   }
  },
  {
   "type": "Feature",
   "properties": {
    "layer": "OBSTACLES",
    "name": "trees",
    "kind": "vegetation"
   },
   "geometry": {
    "type": "Polygon",
    "coordinates": [
     [
      [
       39.89295639,
       21.41296471
      ],
      [
       39.89298528,
       21.41295552
      ],
      [
       39.8929951,
       21.41298257
      ],
      [
       39.89296621,
       21.41299176
      ],
      [
       39.89295639,
       21.41296471
      ]
     ]
    ]
   }
  },
  {
   "type": "Feature",
   "properties": {
    "layer": "OBSTACLES",
    "name": "medical-store",
    "kind": "storage"
   },
   "geometry": {
    "type": "Polygon",
    "coordinates": [
     [
      [
       39.89314957,
       21.41299982
      ],
      [
       39.89318816,
       21.41299961
      ],
      [
       39.89318832,
       21.41302671
      ],
      [
       39.89314973,
       21.41302692
      ],
      [
       39.89314957,
       21.41299982
      ]
     ]
    ]
   }
  },
  {
   "type": "Feature",
   "properties": {
    "layer": "NO_BEDS",
    "name": "fire-break"
   },
   "geometry": {
    "type": "Polygon",
    "coordinates": [
     [
      [
       39.89304234,
       21.4128197
      ],
      [
       39.89305682,
       21.41281962
      ],
      [
       39.89305824,
       21.41305451
      ],
      [
       39.89304377,
       21.41305459
      ],
      [
       39.89304234,
       21.4128197
      ]
     ]
    ]
   }
  },
  {
   "type": "Feature",
   "properties": {
    "layer": "NO_BEDS",
    "name": "exhaust"
   },
   "geometry": {
    "type": "Polygon",
    "coordinates": [
     [
      [
       39.89319704,
       21.41287308
      ],
      [
       39.89322598,
       21.41287293
      ],
      [
       39.89322617,
       21.41290455
      ],
      [
       39.89319723,
       21.4129047
      ],
      [
       39.89319704,
       21.41287308
      ]
     ]
    ]
   }
  },
  {
   "type": "Feature",
   "properties": {
    "layer": "ZONE_MEDICAL_AREA",
    "name": "medical-area"
   },
   "geometry": {
    "type": "Polygon",
    "coordinates": [
     [
      [
       39.89317796,
       21.41290932
      ],
      [
       39.89325032,
       21.41290894
      ],
      [
       39.89325081,
       21.41299024
      ],
      [
       39.89317845,
       21.41299063
      ],
      [
       39.89317796,
       21.41290932
      ]
     ]
    ]
   }
  }
 ]
}