{"type": "FeatureCollection", "name": "camp input, local metres", "features": [{"type": "Feature", "geometry": {"type": "Polygon", "coordinates": [[[0.0, 0.0], [34.0, 0.0], [40.0, 5.0], [40.0, 20.0], [34.0, 26.0], [14.0, 26.0], [14.0, 22.0], [5.0, 22.0], [0.0, 17.0], [0.0, 0.0]]]}, "properties": {"layer": "boundary", "name": "Irregular camp, four doors", "area_m2": 938.5}}, {"type": "Feature", "geometry": {"type": "Polygon", "coordinates": [[[5.5, 4.0], [8.5, 4.0], [8.5, 0.0], [5.5, 0.0], [5.5, 4.0]]]}, "properties": {"layer": "door_zone_max", "door": "D1-south", "depth_m": 4.0, "note": "the most this zone may grow"}}, {"type": "Feature", "geometry": {"type": "Polygon", "coordinates": [[[5.5, 2.0], [8.5, 2.0], [8.5, 0.0], [5.5, 0.0], [5.5, 2.0]]]}, "properties": {"layer": "door_zone", "door": "D1-south", "depth_m": 2.0, "area_m2": 6.0, "area_per_bed_m2": 0.25}}, {"type": "Feature", "geometry": {"type": "Polygon", "coordinates": [[[40.0, 10.5], [36.0, 10.5], [36.0, 13.5], [40.0, 13.5], [40.0, 10.5]]]}, "properties": {"layer": "door_zone_max", "door": "D2-east", "depth_m": 4.0, "note": "the most this zone may grow"}}, {"type": "Feature", "geometry": {"type": "Polygon", "coordinates": [[[40.0, 10.5], [38.0, 10.5], [38.0, 13.5], [40.0, 13.5], [40.0, 10.5]]]}, "properties": {"layer": "door_zone", "door": "D2-east", "depth_m": 2.0, "area_m2": 6.0, "area_per_bed_m2": 0.25}}, {"type": "Feature", "geometry": {"type": "Polygon", "coordinates": [[[24.5, 22.0], [21.5, 22.0], [21.5, 26.0], [24.5, 26.0], [24.5, 22.0]]]}, "properties": {"layer": "door_zone_max", "door": "D3-north", "depth_m": 4.0, "note": "the most this zone may grow"}}, {"type": "Feature", "geometry": {"type": "Polygon", "coordinates": [[[24.5, 24.0], [21.5, 24.0], [21.5, 26.0], [24.5, 26.0], [24.5, 24.0]]]}, "properties": {"layer": "door_zone", "door": "D3-north", "depth_m": 2.0, "area_m2": 6.0, "area_per_bed_m2": 0.25}}, {"type": "Feature", "geometry": {"type": "Polygon", "coordinates": [[[4.0, 10.0], [4.0, 7.5], [0.0, 7.5], [0.0, 10.0], [4.0, 10.0]]]}, "properties": {"layer": "door_zone_max", "door": "D4-west", "depth_m": 4.0, "note": "the most this zone may grow"}}, {"type": "Feature", "geometry": {"type": "Polygon", "coordinates": [[[2.0, 10.0], [2.0, 7.5], [0.0, 7.5], [0.0, 10.0], [2.0, 10.0]]]}, "properties": {"layer": "door_zone", "door": "D4-west", "depth_m": 2.0, "area_m2": 5.0, "area_per_bed_m2": 0.25}}, {"type": "Feature", "geometry": {"type": "Polygon", "coordinates": [[[6.0, 0.3], [8.0, 0.3], [8.0, 0.0], [6.0, 0.0], [6.0, 0.3]]]}, "properties": {"layer": "door", "id": "D1-south", "width_m": 2, "capacity": 80}}, {"type": "Feature", "geometry": {"type": "Polygon", "coordinates": [[[40.0, 11.0], [39.7, 11.0], [39.7, 13.0], [40.0, 13.0], [40.0, 11.0]]]}, "properties": {"layer": "door", "id": "D2-east", "width_m": 2, "capacity": 60}}, {"type": "Feature", "geometry": {"type": "Polygon", "coordinates": [[[24.0, 25.7], [22.0, 25.7], [22.0, 26.0], [24.0, 26.0], [24.0, 25.7]]]}, "properties": {"layer": "door", "id": "D3-north", "width_m": 2, "capacity": 80}}, {"type": "Feature", "geometry": {"type": "Polygon", "coordinates": [[[0.3, 9.5], [0.3, 8.0], [0.0, 8.0], [0.0, 9.5], [0.3, 9.5]]]}, "properties": {"layer": "door", "id": "D4-west", "width_m": 1.5, "capacity": 40}}, {"type": "Feature", "geometry": {"type": "Polygon", "coordinates": [[[32.0, 10.0], [39.5, 10.0], [39.5, 19.0], [32.0, 19.0], [32.0, 10.0]]]}, "properties": {"layer": "placement_zone", "id": "medical-area", "bed_types": "medical"}}, {"type": "Feature", "geometry": {"type": "Polygon", "coordinates": [[[18.0, 0.0], [19.5, 0.0], [19.5, 26.0], [18.0, 26.0], [18.0, 0.0]]]}, "properties": {"layer": "prohibited", "id": "fire-break", "note": "no beds; people may walk"}}, {"type": "Feature", "geometry": {"type": "Polygon", "coordinates": [[[34.0, 6.0], [37.0, 6.0], [37.0, 9.5], [34.0, 9.5], [34.0, 6.0]]]}, "properties": {"layer": "prohibited", "id": "exhaust", "note": "no beds; people may walk"}}, {"type": "Feature", "geometry": {"type": "Polygon", "coordinates": [[[1.0, 12.5], [5.0, 12.5], [5.0, 15.5], [1.0, 15.5], [1.0, 12.5]]]}, "properties": {"layer": "obstacle", "id": "latrines", "kind": "sanitation", "area_m2": 12.0}}, {"type": "Feature", "geometry": {"type": "Polygon", "coordinates": [[[30.0, 6.0], [34.0, 6.0], [34.0, 9.0], [30.0, 9.0], [30.0, 6.0]]]}, "properties": {"layer": "obstacle", "id": "generator", "kind": "power", "area_m2": 12.0}}, {"type": "Feature", "geometry": {"type": "Polygon", "coordinates": [[[25.5, 13.0], [25.4266, 13.4635], [25.2135, 13.8817], [24.8817, 14.2135], [24.4635, 14.4266], [24.0, 14.5], [23.5365, 14.4266], [23.1183, 14.2135], [22.7865, 13.8817], [22.5734, 13.4635], [22.5, 13.0], [22.5734, 12.5365], [22.7865, 12.1183], [23.1183, 11.7865], [23.5365, 11.5734], [24.0, 11.5], [24.4635, 11.5734], [24.8817, 11.7865], [25.2135, 12.1183], [25.4266, 12.5365], [25.5, 13.0]]]}, "properties": {"layer": "obstacle", "id": "water-tank", "kind": "water", "area_m2": 7.0}}, {"type": "Feature", "geometry": {"type": "Polygon", "coordinates": [[[9.0, 16.0], [12.0, 15.0], [13.0, 18.0], [10.0, 19.0], [9.0, 16.0]]]}, "properties": {"layer": "obstacle", "id": "trees", "kind": "vegetation", "area_m2": 10.0}}, {"type": "Feature", "geometry": {"type": "Polygon", "coordinates": [[[29.0, 20.0], [33.0, 20.0], [33.0, 23.0], [29.0, 23.0], [29.0, 20.0]]]}, "properties": {"layer": "obstacle", "id": "medical-store", "kind": "storage", "area_m2": 12.0}}]}