{"type": "FeatureCollection", "name": "camp input, WGS84", "features": [{"type": "Feature", "geometry": {"type": "Polygon", "coordinates": [[[31.6, 30.100000000000005], [31.60035273589514, 30.099999999526528], [31.60041498359447, 30.10004510366332], [31.600414984159737, 30.100180416617434], [31.600352736727967, 30.10023454198015], [31.600145244535046, 30.10023454237335], [31.600145244482288, 30.100198458919497], [31.60005187302939, 30.100198458989535], [31.6, 30.100153354682167], [31.6, 30.100000000000005]]]}, "properties": {"layer": "boundary", "name": "Irregular camp, four doors", "area_m2": 938.5}}, {"type": "Feature", "geometry": {"type": "Polygon", "coordinates": [[[31.60005706023906, 30.10003608344257], [31.600088184005816, 30.100036083425366], [31.60008818397378, 30.09999999997041], [31.60005706021833, 30.099999999987613], [31.60005706023906, 30.10003608344257]]]}, "properties": {"layer": "door_zone_max", "door": "D1-south", "depth_m": 4.0, "note": "the most this zone may grow"}}, {"type": "Feature", "geometry": {"type": "Polygon", "coordinates": [[[31.600057060228696, 30.100018041715117], [31.600088183989794, 30.10001804169791], [31.60008818397378, 30.09999999997041], [31.60005706021833, 30.099999999987613], [31.600057060228696, 30.100018041715117]]]}, "properties": {"layer": "door_zone", "door": "D1-south", "depth_m": 2.0, "area_m2": 6.0, "area_per_bed_m2": 0.25}}, {"type": "Feature", "geometry": {"type": "Polygon", "coordinates": [[[31.600414983801734, 30.100094718413487], [31.60037348542156, 30.100094718538006], [31.600373485523313, 30.10012178112884], [31.600414983914778, 30.10012178100433], [31.600414983801734, 30.100094718413487]]]}, "properties": {"layer": "door_zone_max", "door": "D2-east", "depth_m": 4.0, "note": "the most this zone may grow"}}, {"type": "Feature", "geometry": {"type": "Polygon", "coordinates": [[[31.600414983801734, 30.100094718413487], [31.600394234611645, 30.10009471847738], [31.600394234719044, 30.10012178106822], [31.600414983914778, 30.10012178100433], [31.600414983801734, 30.100094718413487]]]}, "properties": {"layer": "door_zone", "door": "D2-east", "depth_m": 2.0, "area_m2": 6.0, "area_per_bed_m2": 0.25}}, {"type": "Feature", "geometry": {"type": "Polygon", "coordinates": [[[31.600254177843997, 30.100198458753912], [31.60022305402637, 30.10019845881045], [31.60022305410739, 30.100234542264307], [31.60025417793633, 30.100234542207776], [31.600254177843997, 30.100198458753912]]]}, "properties": {"layer": "door_zone_max", "door": "D3-north", "depth_m": 4.0, "note": "the most this zone may grow"}}, {"type": "Feature", "geometry": {"type": "Polygon", "coordinates": [[[31.600254177890164, 30.100216500480876], [31.600223054066884, 30.1002165005374], [31.60022305410739, 30.100234542264307], [31.60025417793633, 30.100234542207776], [31.600254177890164, 30.100216500480876]]]}, "properties": {"layer": "door_zone", "door": "D3-north", "depth_m": 2.0, "area_m2": 6.0, "area_per_bed_m2": 0.25}}, {"type": "Feature", "geometry": {"type": "Polygon", "coordinates": [[[31.600041498378292, 30.100090208630448], [31.60004149836887, 30.10006765647132], [31.6, 30.100067656477876], [31.6, 30.100090208637013], [31.600041498378292, 30.100090208630448]]]}, "properties": {"layer": "door_zone_max", "door": "D4-west", "depth_m": 4.0, "note": "the most this zone may grow"}}, {"type": "Feature", "geometry": {"type": "Polygon", "coordinates": [[[31.60002074918914, 30.100090208635372], [31.600020749184434, 30.10006765647624], [31.6, 30.100067656477876], [31.6, 30.100090208637013], [31.60002074918914, 30.100090208635372]]]}, "properties": {"layer": "door_zone", "door": "D4-west", "depth_m": 2.0, "area_m2": 5.0, "area_per_bed_m2": 0.25}}, {"type": "Feature", "geometry": {"type": "Polygon", "coordinates": [[[31.600062247512607, 30.100002706244393], [31.600082996683476, 30.10000270623293], [31.60008299668121, 30.09999999997379], [31.60006224751091, 30.099999999985258], [31.600062247512607, 30.100002706244393]]]}, "properties": {"layer": "door", "id": "D1-south", "width_m": 2, "capacity": 80}}, {"type": "Feature", "geometry": {"type": "Polygon", "coordinates": [[[31.600414983820574, 30.1000992288453], [31.600411871441917, 30.100099228855097], [31.600411871516723, 30.10011727058232], [31.60041498389595, 30.100117270572525], [31.600414983820574, 30.1000992288453]]]}, "properties": {"layer": "door", "id": "D2-east", "width_m": 2, "capacity": 60}}, {"type": "Feature", "geometry": {"type": "Polygon", "coordinates": [[[31.600248990624728, 30.100231835958688], [31.600228241406, 30.100231835996365], [31.60022824141221, 30.100234542255397], [31.600248990631503, 30.100234542217713], [31.600248990624728, 30.100231835958688]]]}, "properties": {"layer": "door", "id": "D3-north", "width_m": 2, "capacity": 80}}, {"type": "Feature", "geometry": {"type": "Polygon", "coordinates": [[[31.600003112378232, 30.10008569820515], [31.600003112377806, 30.100072166909673], [31.6, 30.10007216690971], [31.6, 30.10008569820518], [31.600003112378232, 30.10008569820515]]]}, "properties": {"layer": "door", "id": "D4-west", "width_m": 1.5, "capacity": 40}}, {"type": "Feature", "geometry": {"type": "Polygon", "coordinates": [[[31.60033198702631, 30.100090208217594], [31.60040979648561, 30.100090207997955], [31.600409796820518, 30.10017139577019], [31.600331987297643, 30.100171395989825], [31.60033198702631, 30.100090208217594]]]}, "properties": {"layer": "placement_zone", "id": "medical-area", "bed_types": "medical"}}, {"type": "Feature", "geometry": {"type": "Polygon", "coordinates": [[[31.60018674253272, 30.0999999998673], [31.60020230441045, 30.099999999844258], [31.600202304888096, 30.100234542297887], [31.600186742973627, 30.100234542320926], [31.60018674253272, 30.0999999998673]]]}, "properties": {"layer": "prohibited", "id": "fire-break", "note": "no beds; people may walk"}}, {"type": "Feature", "geometry": {"type": "Polygon", "coordinates": [[[31.600352736087334, 30.100054124708876], [31.60038385985974, 30.100054124621632], [31.600383859981747, 30.100085697644463], [31.60035273619944, 30.1000856977317], [31.600352736087334, 30.100054124708876]]]}, "properties": {"layer": "prohibited", "id": "exhaust", "note": "no beds; people may walk"}}, {"type": "Feature", "geometry": {"type": "Polygon", "coordinates": [[[31.600010374596927, 30.10011276079566], [31.600051872984633, 30.100112760785827], [31.60005187299877, 30.100139823376598], [31.60001037459975, 30.100139823386424], [31.600010374596927, 30.10011276079566]]]}, "properties": {"layer": "obstacle", "id": "latrines", "kind": "sanitation", "area_m2": 12.0}}, {"type": "Feature", "geometry": {"type": "Polygon", "coordinates": [[[31.600311237724117, 30.100054124813727], [31.600352736087334, 30.100054124708876], [31.600352736183424, 30.10008118729988], [31.6003112378089, 30.10008118740474], [31.600311237724117, 30.100054124813727]]]}, "properties": {"layer": "obstacle", "id": "generator", "kind": "power", "area_m2": 12.0}}, {"type": "Feature", "geometry": {"type": "Polygon", "coordinates": [[[31.60026455223366, 30.100117270961533], [31.600263790749317, 30.10012145213334], [31.60026157993245, 30.100125224662914], [31.600258137648545, 30.10012821779226], [31.600253798996334, 30.100130140146742], [31.600248990371487, 30.10013080228734], [31.60024418174331, 30.100130140164968], [31.60023984308147, 30.100128217826935], [31.600236400782553, 30.100125224710638], [31.600234189946782, 30.100121452189445], [31.60023342844147, 30.100117271020512], [31.600234189927054, 30.100113089848882], [31.6002364007447, 30.100109317319752], [31.60023984302861, 30.100106324190964], [31.600244181680043, 30.100104401836955], [31.600248990303644, 30.100103739696525], [31.60025379893058, 30.10010440181872], [31.600258137591652, 30.100106324156304], [31.600261579890564, 30.100109317272043], [31.600263790727116, 30.10011308979278], [31.60026455223366, 30.100117270961533]]]}, "properties": {"layer": "obstacle", "id": "water-tank", "kind": "water", "area_m2": 7.0}}, {"type": "Feature", "geometry": {"type": "Polygon", "coordinates": [[[31.600093371402025, 30.100144333785444], [31.60012449519139, 30.100135312896064], [31.60013486982742, 30.100162375476504], [31.600103746030513, 30.100171396368292], [31.600093371402025, 30.100144333785444]]]}, "properties": {"layer": "obstacle", "id": "trees", "kind": "vegetation", "area_m2": 10.0}}, {"type": "Feature", "geometry": {"type": "Polygon", "coordinates": [[[31.600300863515802, 30.100180416928314], [31.600342361931776, 30.100180416826724], [31.600342362025057, 30.100207479417215], [31.600300863597774, 30.100207479518797], [31.600300863515802, 30.100180416928314]]]}, "properties": {"layer": "obstacle", "id": "medical-store", "kind": "storage", "area_m2": 12.0}}]}